{
    "links": {
        "self": "http://www.neowsapp.com/rest/v1/neo/3631970?api_key=iIulBulltgU6a56xZRHN4H3l9WmuAYTsLGpBGhQ2"
    },
    "id": "3631970",
    "neo_reference_id": "3631970",
    "name": "(2013 EA34)",
    "designation": "2013 EA34",
    "nasa_jpl_url": "http://ssd.jpl.nasa.gov/sbdb.cgi?sstr=3631970",
    "absolute_magnitude_h": 24.3,
    "estimated_diameter": {
        "kilometers": {
            "estimated_diameter_min": 0.0366906138,
            "estimated_diameter_max": 0.0820427065
        },
        "meters": {
            "estimated_diameter_min": 36.6906137531,
            "estimated_diameter_max": 82.0427064882
        },
        "miles": {
            "estimated_diameter_min": 0.0227984834,
            "estimated_diameter_max": 0.0509789586
        },
        "feet": {
            "estimated_diameter_min": 120.3760332259,
            "estimated_diameter_max": 269.1689931548
        }
    },
    "is_potentially_hazardous_asteroid": false,
    "close_approach_data": [
        {
            "close_approach_date": "2013-02-20",
            "close_approach_date_full": "2013-Feb-20 19:00",
            "epoch_date_close_approach": 1361386800000,
            "relative_velocity": {
                "kilometers_per_second": "22.2844035648",
                "kilometers_per_hour": "80223.8528334316",
                "miles_per_hour": "49847.9823341953"
            },
            "miss_distance": {
                "astronomical": "0.0836983246",
                "lunar": "32.5586482694",
                "kilometers": "12521091.082728602",
                "miles": "7780245.2240426276"
            },
            "orbiting_body": "Earth"
        }
    ],
    "orbital_data": {
        "orbit_id": "4",
        "orbit_determination_date": "2017-04-06 08:46:31",
        "first_observation_date": "2013-03-05",
        "last_observation_date": "2013-03-12",
        "data_arc_in_days": 7,
        "observations_used": 9,
        "orbit_uncertainty": "9",
        "minimum_orbit_intersection": ".0176578",
        "jupiter_tisserand_invariant": "3.971",
        "epoch_osculation": "2456357.5",
        "eccentricity": ".7504954799883724",
        "semi_major_axis": "1.607432084488013",
        "inclination": "2.990569738511583",
        "ascending_node_longitude": "175.8091281768201",
        "orbital_period": "744.3845932382493",
        "perihelion_distance": ".4010615706914716",
        "perihelion_argument": "227.1903528577027",
        "aphelion_distance": "2.813802598284554",
        "perihelion_time": "2456297.134174170370",
        "mean_anomaly": "29.1941793208384",
        "mean_motion": ".4836209712964568",
        "equinox": "J2000",
        "orbit_class": {
            "orbit_class_type": "APO",
            "orbit_class_description": "Near-Earth asteroid orbits which cross the Earth’s orbit similar to that of 1862 Apollo",
            "orbit_class_range": "a (semi-major axis) > 1.0 AU; q (perihelion) < 1.017 AU"
        }
    },
    "is_sentry_object": false
}